ALOS-4 (DAICHI-4)       
1 60182U 24123A   24273.75756236  .00005184  00000+0  70052-3 0  9992
2 60182  97.9216   8.9105 0001419  96.1875 263.9499 14.79473137 13403
